DELTA 2 R/B             
1 25876U 99041E   20047.53440002 -.00000047  00000-0  32715-4 0  9996
2 25876  51.7655  71.6387 0531094 348.6144  10.3145 14.04391078 51493
HELIOS 1B               
1 25977U 99064A   20047.39125326  .00000035  00000-0  11479-4 0  9996
2 25977  98.2615 198.1469 0001997  55.8651 304.2750 14.82460145357031
TERRA                   
1 25994U 99068A   20047.41971681 -.00000016  00000-0  64142-5 0  9991
2 25994  98.2025 123.3593 0001446  90.0049 270.1309 14.57091245 72548
SL-16 R/B               
1 26070U 00006B   20047.47429143 -.00000237  00000-0 -96950-4 0  9995
2 26070  71.0000  69.5782 0018457 304.8351  55.1036 14.15459348 35373
TITAN 4B R/B            
1 26474U 00047B   20047.43036064  .00000068  00000-0  16846-4 0  9996
2 26474  67.9935  51.5629 0058622 327.3251  32.4269 14.95913444 60992
ENVISAT                 
1 27386U 02009A   20047.53645966  .00000014  00000-0  17946-4 0  9990
2 27386  98.1400  60.9765 0001183  93.3815  78.8757 14.37971526941095
IDEFIX & ARIANE 42P R/B 
1 27422U 02021B   20047.50640732 -.00000008  00000-0  13038-4 0  9990
2 27422  98.3352  13.7303 0011249 228.2332 131.7890 14.29281852927745
AQUA                    
1 27424U 02022A   20047.53060223  .00000057  00000-0  22677-4 0  9999
2 27424  98.2223 349.9011 0002261  38.7459  82.0212 14.57099685946111
CZ-4B R/B               
1 27432U 02024C   20047.50609449 -.00000025  00000-0  10778-4 0  9991
2 27432  99.0855  47.6431 0050794 159.3526 310.6201 14.14089231916414
MIDORI II (ADEOS-II)    
1 27597U 02056A   20047.57087486  .00000032  00000-0  30656-4 0  9990
2 27597  98.5058 358.3174 0001444  40.9201 319.2089 14.27432323894427
H-2A R/B                
1 27601U 02056E   20047.53635699  .00000037  00000-0  28619-4 0  9998
2 27601  98.2440  89.4757 0070931 280.8444 206.0477 14.31933599897248
CZ-4B R/B               
1 28059U 03049C   20047.46996245  .00000008  00000-0  13593-4 0  9991
2 28059  98.4892 322.6090 0050637 150.3420 210.0664 14.52588074865107
CZ-2C R/B               
1 28222U 04012C   20047.49017848  .00000189  00000-0  15292-4 0  9998
2 28222  97.6611   9.8353 0048813  87.5855  27.3799 15.10286725867586
SL-16 R/B               
1 28353U 04021B   20047.54972898 -.00000307  00000-0 -13599-3 0  9995
2 28353  71.0003 194.9921 0004823 190.2905 169.8120 14.14227305809904
CZ-4B R/B               
1 28415U 04035C   20047.44807541  .00000236  00000-0  19718-4 0  9999
2 28415  97.6319  90.2460 0052773  49.5137 311.0672 15.06805447845266
CZ-2C R/B               
1 28480U 04046B   20047.60059240 -.00000048  00000-0 -26621-5 0  9991
2 28480  98.0970  91.8840 0141107 225.4770 288.2664 14.25717299793055
ARIANE 5 R/B            
1 28499U 04049H   20047.27303785  .00000002  00000-0  78165-5 0  9991
2 28499  98.0505 148.7143 0091065 308.7314 106.3376 14.80007617818025
CZ-2D R/B               
1 28738U 05024B   20047.47832909  .00000236  00000-0  17388-4 0  9996
2 28738  97.3945  74.0199 0010532 241.4555 118.5616 15.11961572802976
SUZAKU (ASTRO-EII)      
1 28773U 05025A   20047.53138891  .00000582  00000-0  24110-4 0  9997
2 28773  31.3828  89.3538 0004492  59.8349 300.2743 15.17392283805426
ALOS (DAICHI)           
1 28931U 06002A   20047.58137171  .00000077  00000-0  23702-4 0  9999
2 28931  97.8357  39.3504 0001945  87.7123 272.4297 14.62682178749889
H-2A R/B                
1 28932U 06002B   20047.48297469  .00000155  00000-0  20633-4 0  9993
2 28932  98.3119  30.7171 0088890   1.4367 110.5757 14.92144567762958
AKARI (ASTRO-F)         
1 28939U 06005A   20047.46694346  .00002990  00000-0  82200-4 0  9993
2 28939  98.2179   7.7237 0095972  31.6377 329.0583 15.33640439762197
RESURS-DK 1             
1 29228U 06021A   20047.51913839  .00000035  00000-0  10051-4 0  9993
2 29228  69.9362 138.4073 0007752 280.7291  79.2997 15.02510231754432
GENESIS 1               
1 29252U 06029A   20047.53939352  .00000170  00000-0  18439-4 0  9996
2 29252  64.5248 340.2901 0023411 190.2270 169.8380 15.18027053749593
CZ-4B R/B               
1 29507U 06046C   20047.59493223  .00000217  00000-0  21902-4 0  9997
2 29507  97.7457  69.8152 0045299 214.5322 145.2957 15.00481529727096
CZ-2C R/B               
1 31114U 07010B   20047.55703526 -.00000045  00000-0 -23389-5 0  9995
2 31114  98.2779 268.5030 0058593 262.4033  97.0487 14.19307422665711
COSMO-SKYMED 1          
1 31598U 07023A   20047.41876643 -.00000546  00000-0 -62048-4 0  9991
2 31598  97.8854 232.3415 0001367  89.4216 270.7059 14.82155704686755
GENESIS 2               
1 31789U 07028A   20047.29204678  .00000225  00000-0  21512-4 0  9990
2 31789  64.5037  22.4467 0048811 258.3889 101.1752 15.17156104696644
COSMOS 2428             
1 31792U 07029A   20047.53598720 -.00000226  00000-0 -96362-4 0  9994
2 31792  70.9251 168.9393 0009525 261.4448  98.5594 14.12387998651562
SL-16 R/B               
1 31793U 07029B   20047.57028924 -.00000233  00000-0 -96747-4 0  9998
2 31793  70.9769 142.3941 0002242 269.9459 181.4088 14.14427589652458
KORONAS-FOTON           
1 33504U 09003A   20047.55868409  .00000670  00000-0  33491-4 0  9992
2 33504  82.4447 344.1044 0018751 345.8842  14.1864 15.15569387608921
H-2A R/B                
1 38341U 12025E   20047.47565673  .00000117  00000-0  21396-4 0  9999
2 38341  98.4802 194.7312 0054377 263.7150  95.7867 14.83984176419275
CUSAT 2 & FALCON 9 R/B  
1 39271U 13055G   20047.52628155  .00002714  00000-0  65032-4 0  9997
2 39271  80.9664  38.0197 0593457 176.4663 184.1030 14.46864825333094
SL-4 R/B                
1 39679U 14021B   20047.50756155 -.00000074  00000-0  14660-4 0  9992
2 39679  51.6178 313.2878 0171753 243.1324 115.2000 15.06298378320642
ALOS-2                  
1 39766U 14029A   20047.56913158  .00000086  00000-0  18434-4 0  9996
2 39766  97.9200 145.9235 0001434  88.7901 271.3476 14.79471498309673
SL-27 R/B               
1 40354U 14084B   20047.59633202  .00000521  00000-0  14068-4 0  9997
2 40354  74.7371 280.1611 0037798 172.8996 187.2760 15.40028098289379
YAOGAN 29               
1 41038U 15069A   20047.57687415 -.00000037  00000-0  20456-5 0  9996
2 41038  98.0006  35.8187 0000893  43.4549 316.6731 14.80435270228241
ASTRO-H (HITOMI)        
1 41337U 16012A   20047.38013352  .00000223  00000-0  11135-4 0  9998
2 41337  31.0065  63.7404 0012461 304.7929  55.1533 14.98651323219171
SHENZHOU-11 MODULE      
1 41868U 16061G   20047.54125031  .00017848  82976-5  69244-4 0  9999
2 41868  42.7894 180.7292 0011844 340.2245  70.8612 15.88838178186624
HXMT (HUIYAN)           
1 42758U 17034A   20047.32904396  .00000043  00000-0  16450-4 0  9997
2 42758  43.0202 345.9229 0011927 334.6037 166.5487 15.08754791147421
CZ-2C R/B               
1 43521U 18054D   20047.50140219  .00000465  00000-0  27573-4 0  9991
2 43521  35.1522 211.4729 0082224 122.3126 238.5583 15.10882968 90692
AEOLUS                  
1 43600U 18066A   20047.58411532  .00018897  00000-0  74939-4 0  9995
2 43600  96.7226  55.7945 0006410  88.1253 272.0754 15.86735847 86049
SAOCOM 1A               
1 43641U 18076A   20047.35942286 -.00000013  00000-0  49356-5 0  9999
2 43641  97.8853 235.2138 0001473  78.4907 281.6473 14.82158507 73512
CREW DRAGON DEMO-1 DEB  
1 44064U 19011B   20047.45612554  .00007818  00000-0  93406-4 0  9995
2 44064  51.6399 209.3104 0003112 312.9486  47.1233 15.62078100 53820
